[Satellite]
VERSION=1.1
NAME=RESURS P2
NICKNAME=RESURS P2
TLE1=1 40360U 14087A   17186.19909822  .00000661  00000-0  23918-4 0  9996
TLE2=2 40360  97.2769 279.5812 0012256  86.2645 359.7690 15.31832834141144
